ORBCOMM FM103           
1 40091U 14040F   24151.59444927  .00001097  00000+0  28075-3 0  9991
2 40091  47.0069  22.5939 0002206 312.3582  47.7116 14.56648555508295
ORBCOMM FM114           
1 41179U 15081A   24151.49016688  .00001504  00000+0  37052-3 0  9991
2 41179  47.0033 292.3545 0001056 350.8535   9.2330 14.56706100448645
ORBCOMM FM119           
1 41180U 15081B   24151.18676287  .00000759  00000+0  20576-3 0  9990
2 41180  46.9997 202.9792 0000269  82.4205 277.6710 14.56632771449851
ORBCOMM FM105           
1 41181U 15081C   24149.94514343  .00000326  00000+0  13899-3 0  9996
2 41181  47.0000 177.4332 0001516   5.7768 354.3129 14.44412429445185
ORBCOMM FM110           
1 41182U 15081D   24150.50727600  .00001484  00000+0  36637-3 0  9994
2 41182  47.0024 296.3938 0002549 219.2990 140.7710 14.56696559448379
ORBCOMM FM118           
1 41183U 15081E   24151.51364070  .00001503  00000+0  37050-3 0  9997
2 41183  47.0046 291.9639 0002584 220.1982 139.8713 14.56688640448626
ORBCOMM FM112           
1 41184U 15081F   24151.50614842  .00001068  00000+0  27404-3 0  9990
2 41184  46.9981 200.6791 0000555 335.3938  24.6920 14.56705687449897
